[Satellite]
VERSION=1.1
NAME=IRIDIUM 16 [-]
NICKNAME=IRIDIUM 16 [-]
TLE1=1 24841U 97030F   18020.77545801  .00000064  00000-0  15092-4 0  9997
TLE2=2 24841  86.4032 258.8600 0001048 354.7096   5.4090 14.36762743 78567
